NORAD_CAT_ID,OBJECT_NAME,OBJECT_TYPE,EPOCH,MEAN_MOTION,ECCENTRICITY,INCLINATION,RA_OF_ASC_NODE,ARG_OF_PERICENTER,MEAN_ANOMALY,BSTAR,MEAN_MOTION_DOT,MEAN_MOTION_DDOT,TLE_LINE0,TLE_LINE1,TLE_LINE2,SEMIMAJOR_AXIS,PERIOD,APOGEE,PERIGEE,DECAYED
52671.0,STARLINK-4071,PAYLOAD,2022-05-24 16:00:00,15.79902288,0.0001453999999999,53.2163,267.0738,56.1452,131.5166,-0.0041674,-0.00724469,0.0,0 STARLINK-4071,1 52671U 22017R   22144.66667824 -.00724469  00000-0 -41674-2 0  9999,2 52671  53.2163 267.0738 0001454  56.1452 131.5166 15.79902288  1301,6708.854,91.145,331.695,329.744,0.0
52671.0,STARLINK-4071,PAYLOAD,2022-05-24 22:00:00,15.7955067,0.0001395,53.2171,265.8249,48.8332,121.3887,-0.0052338,-0.00879034,0.0,0 STARLINK-4071,1 52671U 22053R   22144.91667824 -.00879034  00000-0 -52338-2 0  9995,2 52671  53.2171 265.8249 0001395  48.8332 121.3887 15.79550670  1303,6709.85,91.165,332.651,330.779,0.0
52671.0,STARLINK-4071,PAYLOAD,2022-05-25 06:00:00,15.78919521,0.0001346,53.2173,264.1586,48.113,218.2826,-0.0053645,-0.00875657,0.0,0 STARLINK-4071,1 52671U 22053R   22145.25001157 -.00875657  00000-0 -53645-2 0  9993,2 52671  53.2173 264.1586 0001346  48.1130 218.2826 15.78919521  1397,6711.638000000001,91.202,334.406,332.599,0.0
52671.0,STARLINK-4071,PAYLOAD,2022-05-25 14:00:01,15.78292197,0.0001489,53.2175,262.4979,35.6433,326.1661,-0.0055388999999999,-0.00878442,0.0,0 STARLINK-4071,1 52671U 22053R   22145.58334491 -.00878442  00000-0 -55389-2 0  9991,2 52671  53.2175 262.4979 0001489  35.6433 326.1661 15.78292197  1301,6713.416,91.238,336.281,334.282,0.0
52671.0,STARLINK-4071,PAYLOAD,2022-05-25 22:00:00,15.77661908,0.0001433,53.2171,260.8362,39.3886,57.0812,-0.0056846,-0.00876408,0.0,0 STARLINK-4071,1 52671U 22053R   22145.91667824 -.00876408  00000-0 -56846-2 0  9996,2 52671  53.2171 260.8362 0001433  39.3886  57.0812 15.77661908  1304,6715.204000000002,91.274,338.031,336.107,0.0
52671.0,STARLINK-4071,PAYLOAD,2022-05-26 04:00:00,15.77187661,0.0001405,53.2172,259.59,37.518,39.4519,-0.0057816,-0.00872908,0.0,0 STARLINK-4071,1 52671U 22053R   22146.16667824 -.00872908  00000-0 -57816-2 0  9993,2 52671  53.2172 259.5900 0001405  37.5180  39.4519 15.77187661  1536,6716.55,91.302,339.3590000000001,337.471,0.0
52671.0,STARLINK-4071,PAYLOAD,2022-05-26 14:00:01,15.76403148,0.0001702,53.2172,257.5189,33.7712,249.749,-0.0060147,-0.0087652999999999,0.0,0 STARLINK-4071,1 52671U 22053R   22146.58334491 -.00876530  00000-0 -60147-2 0  9996,2 52671  53.2172 257.5189 0001702  33.7712 249.7490 15.76403148  1301,6718.778,91.347,341.787,339.5,0.0
52671.0,STARLINK-4071,PAYLOAD,2022-05-26 20:00:01,15.75931389,0.0001471,53.2171,256.2763,41.1523,221.7314,-0.0061321,-0.00875158,0.0,0 STARLINK-4071,1 52671U 22053R   22146.83334491 -.00875158  00000-0 -61321-2 0  9994,2 52671  53.2171 256.2763 0001471  41.1523 221.7314 15.75931389  1644,6720.119000000002,91.375,342.973,340.996,0.0
52671.0,STARLINK-4071,PAYLOAD,2022-05-26 22:00:00,15.7577421,0.0001383,53.2173,255.8619,35.077,340.834,-0.0061813999999999,-0.00875955,0.0,0 STARLINK-4071,1 52671U 22053R   22146.91667824 -.00875955  00000-0 -61814-2 0  9994,2 52671  53.2173 255.8619 0001383  35.0770 340.8340 15.75774210  1302,6720.566,91.384,343.36,341.5019999999999,0.0
52671.0,STARLINK-4071,PAYLOAD,2022-05-27 14:00:01,15.74514174,0.0002047,53.2175,252.5536,28.636,169.78900000000004,-0.0065146,-0.00873844,0.0,0 STARLINK-4071,1 52671U 22053R   22147.58334491 -.00873844  00000-0 -65146-2 0  9996,2 52671  53.2175 252.5536 0002047  28.6360 169.7890 15.74514174  1305,6724.151,91.457,347.392,344.64,0.0
52671.0,STARLINK-4071,PAYLOAD,2022-05-27 22:00:01,15.73833581,0.0001493,53.2173,250.9009,43.5494,245.0741,-0.0057053999999999,-0.0075363999999999,0.0,0 STARLINK-4071,1 52671U 22053R   22147.91668981 -.00753640  00000-0 -57054-2 0  9997,2 52671  53.2173 250.9009 0001493  43.5494 245.0741 15.73833581  1812,6726.089,91.496,348.959,346.95,0.0
52671.0,STARLINK-4071,PAYLOAD,2022-05-28 04:00:00,15.7325193,0.0001737,53.2172,249.6616,36.3813,229.2816,-0.00054722,-0.00076895,0.0,0 STARLINK-4071,1 52671U 22053R   22148.16667824 -.00076895  00000-0 -54722-3 0  9990,2 52671  53.2172 249.6616 0001737  36.3813 229.2816 15.73251930  1859,6727.746999999999,91.53,350.781,348.444,0.0
52671.0,STARLINK-4071,PAYLOAD,2022-05-28 14:00:01,15.73387299,0.0002777,53.2154,247.5991,295.2352,171.7016,-0.003625,-0.00485193,0.0,0 STARLINK-4071,1 52671U 22053R   22148.58334491 -.00485193  00000-0 -36250-2 0  9997,2 52671  53.2154 247.5991 0002777 295.2352 171.7016 15.73387299  1919,6727.361,91.522,351.094,347.358,0.0
52671.0,STARLINK-4071,PAYLOAD,2022-05-28 22:00:00,15.73325299,0.0002797,53.2152,245.9457,299.2737,256.7116,-0.00058457,-0.00082323,0.0,0 STARLINK-4071,1 52671U 22053R   22148.91667824 -.00082323  00000-0 -58457-3 0  9995,2 52671  53.2152 245.9457 0002797 299.2737 256.7116 15.73325299  1972,6727.538000000001,91.526,351.285,347.521,0.0
52671.0,STARLINK-4071,PAYLOAD,2022-05-29 04:00:00,15.73239683,0.0002392,53.2155,244.7072,301.7940000000001,230.9352,-0.00041572,-0.00058667,0.0,0 STARLINK-4071,1 52671U 22053R   22149.16667824 -.00058667  00000-0 -41572-3 0  9997,2 52671  53.2155 244.7072 0002392 301.7940 230.9352 15.73239683  2003,6727.781999999997,91.531,351.256,348.038,0.0
52671.0,STARLINK-4071,PAYLOAD,2022-05-29 14:00:01,15.73139993,0.0002186,53.2156,242.6475,318.7683,55.1214,-0.00047012,-0.00065924,0.0,0 STARLINK-4071,1 52671U 22053R   22149.58334491 -.00065924  00000-0 -47012-3 0  9993,2 52671  53.2156 242.6475 0002186 318.7683  55.1214 15.73139993  2075,6728.066,91.537,351.402,348.461,0.0
52671.0,STARLINK-4071,PAYLOAD,2022-05-29 20:02:26,15.73152092,0.0002064,53.2136,241.4005,301.2095,58.8723,0.00019294,0.00026489,0.0,0 STARLINK-4071,1 52671U 22053R   22149.83503043  .00026489  00000-0  19294-3 0  9994,2 52671  53.2136 241.4005 0002064 301.2095  58.8723 15.73152092  2540,6728.031999999997,91.536,351.285,348.5080000000001,0.0
52671.0,STARLINK-4071,PAYLOAD,2022-05-30 06:00:00,15.73055899,0.0001597,53.2152,239.3472,340.5242,210.9912,0.0017487,0.00250715,0.0,0 STARLINK-4071,1 52671U 22053R   22150.25001157  .00250715  00000-0  17487-2 0  9993,2 52671  53.2152 239.3472 0001597 340.5242 210.9912 15.73055899  2180,6728.306,91.542,351.246,349.097,0.0
52671.0,STARLINK-4071,PAYLOAD,2022-05-30 12:48:47,15.73107127,0.000214,53.2144,237.9422,330.1285,29.9613,0.00012552,0.00016962,0.0,0 STARLINK-4071,1 52671U 22053R   22150.53388816  .00016962  00000-0  12552-3 0  9997,2 52671  53.2144 237.9422 0002140 330.1285  29.9613 15.73107127  2220,6728.16,91.539,351.465,348.585,0.0
52671.0,STARLINK-4071,PAYLOAD,2022-05-30 12:48:48,15.73094132,0.0001403,53.2145,237.9423,347.2211,12.8774,2.128e-05,2.355e-05,0.0,0 STARLINK-4071,1 52671U 22053R   22150.53389004  .00002355  00000-0  21280-4 0  9997,2 52671  53.2145 237.9423 0001403 347.2211  12.8774 15.73094132  2658,6728.196999999999,91.539,351.006,349.11800000000005,0.0
52671.0,STARLINK-4071,PAYLOAD,2022-05-30 22:00:00,15.732775699999998,0.0001802,53.2152,236.0493,6.9531,2.4027,-0.00070679,-0.00098989,0.0,0 STARLINK-4071,1 52671U 22053R   22150.91667824 -.00098989  00000-0 -70679-3 0  9993,2 52671  53.2152 236.0493 0001802   6.9531   2.4027 15.73277570  2284,6727.674,91.529,350.751,348.327,0.0
52671.0,STARLINK-4071,PAYLOAD,2022-05-31 04:00:00,15.73182641,0.0001761999999999,53.2153,234.8109,14.6943,331.3992,0.00060351,0.00084877,0.0,0 STARLINK-4071,1 52671U 22053R   22151.16667824  .00084877  00000-0  60351-3 0  9996,2 52671  53.2153 234.8109 0001762  14.6943 331.3992 15.73182641  2327,6727.945,91.534,350.995,348.624,0.0
52671.0,STARLINK-4071,PAYLOAD,2022-05-31 05:35:03,15.73249667,0.0001261,53.215,234.4833,0.2028,359.8992,0.00022486,0.00031121,0.0,0 STARLINK-4071,1 52671U 22053R   22151.23268035  .00031121  00000-0  22486-3 0  9996,2 52671  53.2150 234.4833 0001261   0.2028 359.8992 15.73249667  2768,6727.754,91.53,350.467,348.77,0.0
52671.0,STARLINK-4071,PAYLOAD,2022-05-31 20:49:50,15.73257424,0.0001941,53.2149,231.341,17.1169,342.9916,0.00021608,0.00029888,0.0,0 STARLINK-4071,1 52671U 22053R   22151.86794645  .00029888  00000-0  21608-3 0  9998,2 52671  53.2149 231.3410 0001941  17.1169 342.9916 15.73257424  2434,6727.731,91.53,350.902,348.291,0.0
52671.0,STARLINK-4071,PAYLOAD,2022-06-01 04:00:00,15.73219091,0.0001956,53.2146,229.8625,24.4973,228.4801,0.00051019,0.00071656,0.0,0 STARLINK-4071,1 52671U 22053R   22152.16667824  .00071656  00000-0  51019-3 0  9999,2 52671  53.2146 229.8625 0001956  24.4973 228.4801 15.73219091  2485,6727.840999999999,91.532,351.022,348.39,0.0
52671.0,STARLINK-4071,PAYLOAD,2022-06-01 12:04:37,15.73257576,0.0002139,53.2147,228.1972,13.834,346.2739,0.00020341,0.00028094,0.0,0 STARLINK-4071,1 52671U 22053R   22152.50321416  .00028094  00000-0  20341-3 0  9993,2 52671  53.2147 228.1972 0002139  13.8340 346.2739 15.73257576  2532,6727.731,91.53,351.035,348.157,0.0
52671.0,STARLINK-4071,PAYLOAD,2022-06-01 20:00:01,15.73193673,0.0002225,53.2144,226.5648,20.3561,50.5772,-0.00010697,-0.00015604,0.0,0 STARLINK-4071,1 52671U 22053R   22152.83334491 -.00015604  00000-0 -10697-3 0  9994,2 52671  53.2144 226.5648 0002225  20.3561  50.5772 15.73193673  2589,6727.913000000001,91.534,351.275,348.281,0.0
52671.0,STARLINK-4071,PAYLOAD,2022-06-02 15:31:14,15.73291877,0.0002673,53.2144,222.5382,8.5693,351.5373,0.00029507,0.00041161,0.0,0 STARLINK-4071,1 52671U 22053R   22153.64669087  .00041161  00000-0  29507-3 0  9991,2 52671  53.2144 222.5382 0002673   8.5693 351.5373 15.73291877  2712,6727.6330000000025,91.528,351.297,347.7,0.0
52671.0,STARLINK-4071,PAYLOAD,2022-06-02 21:37:09,15.73238399,0.0002247,53.2144,221.2809,16.9828,343.1267,9.3916e-05,0.00012601,0.0,0 STARLINK-4071,1 52671U 22053R   22153.90080826  .00012601  00000-0  93916-4 0  9991,2 52671  53.2144 221.2809 0002247  16.9828 343.1267 15.73238399  2755,6727.786,91.531,351.162,348.139,0.0
